{"type": "FeatureCollection", "features": [{"type": "Feature", "properties": {"norad_id": 26766, "name": "INTELSAT 10 (IS-10)", "group": "intelsat", "lat": 5.948751811945126, "lon": 104.03522384080378, "alt_km": 36159.116027875556, "timestamp": "2025-12-26T19:22:38.561578+00:00", "meta": {"OBJECT_NAME": "INTELSAT 10 (IS-10)", "OBJECT_ID": "2001-019A", "EPOCH": "2025-12-26T03:37:38.694720", "MEAN_MOTION": 0.9907193, "ECCENTRICITY": 0.00080244, "INCLINATION": 8.6594, "RA_OF_ASC_NODE": 61.0206, "ARG_OF_PERICENTER": 229.8344, "MEAN_ANOMALY": 299.4437, "EPHEMERIS_TYPE": 0, "CLASSIFICATION_TYPE": "U", "NORAD_CAT_ID": 26766, "ELEMENT_SET_NO": 999, "REV_AT_EPOCH": 4386, "BSTAR": 0, "MEAN_MOTION_DOT": 4.6e-07, "MEAN_MOTION_DDOT": 0}, "tle": {"line1": "1 26766U 01019A   25360.15114230  .00000046  00000+0  00000+0 0  9999", "line2": "2 26766   8.6594  61.0206 0008024 229.8344 299.4437  0.99071930 43869"}}, "geometry": {"type": "Point", "coordinates": [104.03522384080378, 5.948751811945126]}}, {"type": "Feature", "properties": {"norad_id": 26900, "name": "INTELSAT 902 (IS-902)", "group": "intelsat", "lat": -5.641026295891661, "lon": -24.01061096072543, "alt_km": 35782.426325260676, "timestamp": "2025-12-26T19:22:38.561602+00:00", "meta": {"OBJECT_NAME": "INTELSAT 902 (IS-902)", "OBJECT_ID": "2001-039A", "EPOCH": "2025-12-15T13:09:02.081664", "MEAN_MOTION": 1.0027087, "ECCENTRICITY": 0.00045028, "INCLINATION": 5.6536, "RA_OF_ASC_NODE": 74.0372, "ARG_OF_PERICENTER": 189.6359, "MEAN_ANOMALY": 327.9329, "EPHEMERIS_TYPE": 0, "CLASSIFICATION_TYPE": "U", "NORAD_CAT_ID": 26900, "ELEMENT_SET_NO": 999, "REV_AT_EPOCH": 8885, "BSTAR": 0, "MEAN_MOTION_DOT": -2.65e-06, "MEAN_MOTION_DDOT": 0}, "tle": {"line1": "1 26900U 01039A   25349.54794076 -.00000265  00000+0  00000+0 0  9997", "line2": "2 26900   5.6536  74.0372 0004502 189.6359 327.9329  1.00270870 88858"}}, "geometry": {"type": "Point", "coordinates": [-24.01061096072543, -5.641026295891661]}}, {"type": "Feature", "properties": {"norad_id": 27380, "name": "INTELSAT 904 (IS-904)", "group": "intelsat", "lat": -6.317506906839798, "lon": -5.175397799157834, "alt_km": 35779.62250738209, "timestamp": "2025-12-26T19:22:38.561619+00:00", "meta": {"OBJECT_NAME": "INTELSAT 904 (IS-904)", "OBJECT_ID": "2002-007A", "EPOCH": "2025-12-26T11:10:18.842304", "MEAN_MOTION": 1.00272441, "ECCENTRICITY": 0.00020841, "INCLINATION": 6.4869, "RA_OF_ASC_NODE": 71.2729, "ARG_OF_PERICENTER": 247.9541, "MEAN_ANOMALY": 272.0829, "EPHEMERIS_TYPE": 0, "CLASSIFICATION_TYPE": "U", "NORAD_CAT_ID": 27380, "ELEMENT_SET_NO": 999, "REV_AT_EPOCH": 5003, "BSTAR": 0, "MEAN_MOTION_DOT": -2.06e-06, "MEAN_MOTION_DDOT": 0}, "tle": {"line1": "1 27380U 02007A   25360.46549586 -.00000206  00000+0  00000+0 0  9999", "line2": "2 27380   6.4869  71.2729 0002084 247.9541 272.0829  1.00272441 50038"}}, "geometry": {"type": "Point", "coordinates": [-5.175397799157834, -6.317506906839798]}}, {"type": "Feature", "properties": {"norad_id": 27426, "name": "DIRECTV 5 (TEMPO 1)", "group": "intelsat", "lat": -1.4308333029855376, "lon": -83.97184296071335, "alt_km": 35771.92267450593, "timestamp": "2025-12-26T19:22:38.561633+00:00", "meta": {"OBJECT_NAME": "DIRECTV 5 (TEMPO 1)", "OBJECT_ID": "2002-023A", "EPOCH": "2025-12-26T13:17:03.639840", "MEAN_MOTION": 1.00271439, "ECCENTRICITY": 0.00034457, "INCLINATION": 4.4354, "RA_OF_ASC_NODE": 77.4895, "ARG_OF_PERICENTER": 206.4307, "MEAN_ANOMALY": 260.5228, "EPHEMERIS_TYPE": 0, "CLASSIFICATION_TYPE": "U", "NORAD_CAT_ID": 27426, "ELEMENT_SET_NO": 999, "REV_AT_EPOCH": 8639, "BSTAR": 0, "MEAN_MOTION_DOT": -3.7e-07, "MEAN_MOTION_DDOT": 0}, "tle": {"line1": "1 27426U 02023A   25360.55351435 -.00000037  00000+0  00000+0 0  9994", "line2": "2 27426   4.4354  77.4895 0003445 206.4307 260.5228  1.00271439 86399"}}, "geometry": {"type": "Point", "coordinates": [-83.97184296071335, -1.4308333029855376]}}, {"type": "Feature", "properties": {"norad_id": 27438, "name": "INTELSAT 905 (IS-905)", "group": "intelsat", "lat": 0.3036830683856449, "lon": -110.96125483390334, "alt_km": 35775.145927467725, "timestamp": "2025-12-26T19:22:38.561646+00:00", "meta": {"OBJECT_NAME": "INTELSAT 905 (IS-905)", "OBJECT_ID": "2002-027A", "EPOCH": "2025-12-23T05:41:27.377952", "MEAN_MOTION": 1.00273243, "ECCENTRICITY": 0.00027491, "INCLINATION": 6.3102, "RA_OF_ASC_NODE": 71.9349, "ARG_OF_PERICENTER": 206.5226, "MEAN_ANOMALY": 121.7385, "EPHEMERIS_TYPE": 0, "CLASSIFICATION_TYPE": "U", "NORAD_CAT_ID": 27438, "ELEMENT_SET_NO": 999, "REV_AT_EPOCH": 4959, "BSTAR": 0, "MEAN_MOTION_DOT": 1.12e-06, "MEAN_MOTION_DDOT": 0}, "tle": {"line1": "1 27438U 02027A   25357.23712243  .00000112  00000+0  00000+0 0  9993", "line2": "2 27438   6.3102  71.9349 0002749 206.5226 121.7385  1.00273243 49592"}}, "geometry": {"type": "Point", "coordinates": [-110.96125483390334, 0.3036830683856449]}}, {"type": "Feature", "properties": {"norad_id": 27445, "name": "GALAXY 3C (G-3C)", "group": "intelsat", "lat": -1.715918211649934, "lon": -68.68454815995395, "alt_km": 35788.787124255534, "timestamp": "2025-12-26T19:22:38.561659+00:00", "meta": {"OBJECT_NAME": "GALAXY 3C (G-3C)", "OBJECT_ID": "2002-030A", "EPOCH": "2025-12-26T06:43:38.713152", "MEAN_MOTION": 1.00271267, "ECCENTRICITY": 9.697e-05, "INCLINATION": 3.2955, "RA_OF_ASC_NODE": 80.3601, "ARG_OF_PERICENTER": 86.5436, "MEAN_ANOMALY": 294.1805, "EPHEMERIS_TYPE": 0, "CLASSIFICATION_TYPE": "U", "NORAD_CAT_ID": 27445, "ELEMENT_SET_NO": 999, "REV_AT_EPOCH": 4476, "BSTAR": 0, "MEAN_MOTION_DOT": -1.32e-06, "MEAN_MOTION_DDOT": 0}, "tle": {"line1": "1 27445U 02030A   25360.28030918 -.00000132  00000+0  00000+0 0  9999", "line2": "2 27445   3.2955  80.3601 0000969  86.5436 294.1805  1.00271267 44768"}}, "geometry": {"type": "Point", "coordinates": [-68.68454815995395, -1.715918211649934]}}, {"type": "Feature", "properties": {"norad_id": 27513, "name": "INTELSAT 906 (IS-906)", "group": "intelsat", "lat": 1.428193910495626, "lon": 90.27426851155171, "alt_km": 35812.058572089874, "timestamp": "2025-12-26T19:22:38.561671+00:00", "meta": {"OBJECT_NAME": "INTELSAT 906 (IS-906)", "OBJECT_ID": "2002-041A", "EPOCH": "2025-12-25T18:30:25.911072", "MEAN_MOTION": 1.00270895, "ECCENTRICITY": 0.00061771, "INCLINATION": 5.3631, "RA_OF_ASC_NODE": 75.0767, "ARG_OF_PERICENTER": 202.1174, "MEAN_ANOMALY": 159.0704, "EPHEMERIS_TYPE": 0, "CLASSIFICATION_TYPE": "U", "NORAD_CAT_ID": 27513, "ELEMENT_SET_NO": 999, "REV_AT_EPOCH": 8529, "BSTAR": 0, "MEAN_MOTION_DOT": 3.3e-07, "MEAN_MOTION_DDOT": 0}, "tle": {"line1": "1 27513U 02041A   25359.77113323  .00000033  00000+0  00000+0 0  9990", "line2": "2 27513   5.3631  75.0767 0006177 202.1174 159.0704  1.00270895 85290"}}, "geometry": {"type": "Point", "coordinates": [90.27426851155171, 1.428193910495626]}}, {"type": "Feature", "properties": {"norad_id": 27954, "name": "GALAXY 13 (HORIZONS-1)", "group": "intelsat", "lat": 0.47515349469126267, "lon": -123.83697664311839, "alt_km": 35778.07152175946, "timestamp": "2025-12-26T19:22:38.561683+00:00", "meta": {"OBJECT_NAME": "GALAXY 13 (HORIZONS-1)", "OBJECT_ID": "2003-044A", "EPOCH": "2025-12-26T11:53:43.073952", "MEAN_MOTION": 1.00272501, "ECCENTRICITY": 0.00022993, "INCLINATION": 0.9724, "RA_OF_ASC_NODE": 86.2926, "ARG_OF_PERICENTER": 187.4398, "MEAN_ANOMALY": 209.9098, "EPHEMERIS_TYPE": 0, "CLASSIFICATION_TYPE": "U", "NORAD_CAT_ID": 27954, "ELEMENT_SET_NO": 999, "REV_AT_EPOCH": 4484, "BSTAR": 0, "MEAN_MOTION_DOT": 1.54e-06, "MEAN_MOTION_DDOT": 0}, "tle": {"line1": "1 27954U 03044A   25360.49563743  .00000154  00000+0  00000+0 0  9993", "line2": "2 27954   0.9724  86.2926 0002299 187.4398 209.9098  1.00272501 44841"}}, "geometry": {"type": "Point", "coordinates": [-123.83697664311839, 0.47515349469126267]}}, {"type": "Feature", "properties": {"norad_id": 28358, "name": "INTELSAT 10-02", "group": "intelsat", "lat": -0.0028780175569076854, "lon": 25.258905017509353, "alt_km": 35785.965265952094, "timestamp": "2025-12-26T19:22:38.561694+00:00", "meta": {"OBJECT_NAME": "INTELSAT 10-02", "OBJECT_ID": "2004-022A", "EPOCH": "2025-12-26T08:51:38.739168", "MEAN_MOTION": 1.0027058, "ECCENTRICITY": 0.00012469, "INCLINATION": 0.0178, "RA_OF_ASC_NODE": 41.2908, "ARG_OF_PERICENTER": 258.9062, "MEAN_ANOMALY": 286.8755, "EPHEMERIS_TYPE": 0, "CLASSIFICATION_TYPE": "U", "NORAD_CAT_ID": 28358, "ELEMENT_SET_NO": 999, "REV_AT_EPOCH": 7882, "BSTAR": 0, "MEAN_MOTION_DOT": 1.1e-07, "MEAN_MOTION_DDOT": 0}, "tle": {"line1": "1 28358U 04022A   25360.36919837  .00000011  00000+0  00000+0 0  9996", "line2": "2 28358   0.0178  41.2908 0001246 258.9062 286.8755  1.00270580 78822"}}, "geometry": {"type": "Point", "coordinates": [25.258905017509353, -0.0028780175569076854]}}, {"type": "Feature", "properties": {"norad_id": 28626, "name": "XM-3 (RHYTHM)", "group": "intelsat", "lat": -0.01453772924391527, "lon": 73.63607012015456, "alt_km": 36158.79349656851, "timestamp": "2025-12-26T19:22:38.561706+00:00", "meta": {"OBJECT_NAME": "XM-3 (RHYTHM)", "OBJECT_ID": "2005-008A", "EPOCH": "2025-12-26T04:42:51.380064", "MEAN_MOTION": 0.98950411, "ECCENTRICITY": 0.00022371, "INCLINATION": 0.2074, "RA_OF_ASC_NODE": 82.2895, "ARG_OF_PERICENTER": 272.1799, "MEAN_ANOMALY": 221.5062, "EPHEMERIS_TYPE": 0, "CLASSIFICATION_TYPE": "U", "NORAD_CAT_ID": 28626, "ELEMENT_SET_NO": 999, "REV_AT_EPOCH": 4088, "BSTAR": 0, "MEAN_MOTION_DOT": 8.6e-07, "MEAN_MOTION_DDOT": 0}, "tle": {"line1": "1 28626U 05008A   25360.19642801  .00000086  00000+0  00000+0 0  9996", "line2": "2 28626   0.2074  82.2895 0002237 272.1799 221.5062  0.98950411 40889"}}, "geometry": {"type": "Point", "coordinates": [73.63607012015456, -0.01453772924391527]}}]}